{"type": "FeatureCollection", "features": [ {"type": "Feature", "properties": {"norad_id": 37461, "name": "FENGYUN 1C DEB", "group": "fengyun-1c-debris", "lat": 23.273314225956046, "lon": -136.26062763835037, "alt_km": 932.066602867023, "timestamp": "2025-12-04T21:36:16.161996+00:00", "meta": {"OBJECT_NAME": "FENGYUN 1C DEB", "OBJECT_ID": "1999-025EJF", "EPOCH": "2025-11-27T22:25:56.122176", "MEAN_MOTION": 12.7907076, "ECCENTRICITY": 0.0667413, "INCLINATION": 99.8664, "RA_OF_ASC_NODE": 221.8984, "ARG_OF_PERICENTER": 359.7811, "MEAN_ANOMALY": 0.291, "EPHEMERIS_TYPE": 0, "CLASSIFICATION_TYPE": "U", "NORAD_CAT_ID": 37461, "ELEMENT_SET_NO": 999, "REV_AT_EPOCH": 51845, "BSTAR": 0.0053613, "MEAN_MOTION_DOT": 3.048e-05, "MEAN_MOTION_DDOT": 0}, "tle": {"line1": "1 37461U 99025EJF 25331.93467734  .00003048  00000+0  53613-2 0  9997", "line2": "2 37461  99.8664 221.8984 0667413 359.7811   0.2910 12.79070760518454"}}, "geometry": {"type": "Point", "coordinates": [-136.26062763835037, 23.273314225956046]}}, {"type": "Feature", "properties": {"norad_id": 37464, "name": "FENGYUN 1C DEB", "group": "fengyun-1c-debris", "lat": 9.28321714789323, "lon": -101.23865538589305, "alt_km": 1269.2756384154582, "timestamp": "2025-12-04T21:36:16.162006+00:00", "meta": {"OBJECT_NAME": "FENGYUN 1C DEB", "OBJECT_ID": "1999-025EJJ", "EPOCH": "2025-11-26T01:23:41.244000", "MEAN_MOTION": 13.46785519, "ECCENTRICITY": 0.04513726, "INCLINATION": 102.7057, "RA_OF_ASC_NODE": 249.6569, "ARG_OF_PERICENTER": 154.2241, "MEAN_ANOMALY": 208.2141, "EPHEMERIS_TYPE": 0, "CLASSIFICATION_TYPE": "U", "NORAD_CAT_ID": 37464, "ELEMENT_SET_NO": 999, "REV_AT_EPOCH": 60697, "BSTAR": 0.0022508683, "MEAN_MOTION_DOT": 2.474e-05, "MEAN_MOTION_DDOT": 0}, "tle": {"line1": "1 37464U 99025EJJ 25330.05811625  .00002474  00000+0  22509-2 0  9996", "line2": "2 37464 102.7057 249.6569 0451372 154.2241 208.2141 13.46785519606975"}}, "geometry": {"type": "Point", "coordinates": [-101.23865538589305, 9.28321714789323]}}, {"type": "Feature", "properties": {"norad_id": 37470, "name": "FENGYUN 1C DEB", "group": "fengyun-1c-debris", "lat": 2.8337762734317935, "lon": 120.98395866816384, "alt_km": 575.0217550999851, "timestamp": "2025-12-04T21:36:16.162016+00:00", "meta": {"OBJECT_NAME": "FENGYUN 1C DEB", "OBJECT_ID": "1999-025EJQ", "EPOCH": "2025-12-02T08:43:26.114016", "MEAN_MOTION": 14.99042865, "ECCENTRICITY": 0.00053598, "INCLINATION": 98.6674, "RA_OF_ASC_NODE": 118.5972, "ARG_OF_PERICENTER": 185.6749, "MEAN_ANOMALY": 174.4411, "EPHEMERIS_TYPE": 0, "CLASSIFICATION_TYPE": "U", "NORAD_CAT_ID": 37470, "ELEMENT_SET_NO": 999, "REV_AT_EPOCH": 65306, "BSTAR": 0.0063565181, "MEAN_MOTION_DOT": 0.00077884, "MEAN_MOTION_DDOT": 0}, "tle": {"line1": "1 37470U 99025EJQ 25336.36349669  .00077884  00000+0  63565-2 0  9991", "line2": "2 37470  98.6674 118.5972 0005359 185.6749 174.4411 14.99042865653068"}}, "geometry": {"type": "Point", "coordinates": [120.98395866816384, 2.8337762734317935]}}, {"type": "Feature", "properties": {"norad_id": 37474, "name": "FENGYUN 1C DEB", "group": "fengyun-1c-debris", "lat": -50.581538465738866, "lon": -165.65183596787972, "alt_km": 731.648957666127, "timestamp": "2025-12-04T21:36:16.162027+00:00", "meta": {"OBJECT_NAME": "FENGYUN 1C DEB", "OBJECT_ID": "1999-025EJU", "EPOCH": "2025-12-04T07:11:22.533504", "MEAN_MOTION": 14.74876311, "ECCENTRICITY": 0.01321172, "INCLINATION": 99.1661, "RA_OF_ASC_NODE": 182.3397, "ARG_OF_PERICENTER": 161.3388, "MEAN_ANOMALY": 199.2729, "EPHEMERIS_TYPE": 0, "CLASSIFICATION_TYPE": "U", "NORAD_CAT_ID": 37474, "ELEMENT_SET_NO": 999, "REV_AT_EPOCH": 62251, "BSTAR": 0.0028163313, "MEAN_MOTION_DOT": 0.00021753, "MEAN_MOTION_DDOT": 0}, "tle": {"line1": "1 37474U 99025EJU 25338.29956636  .00021753  00000+0  28163-2 0  9996", "line2": "2 37474  99.1661 182.3397 0132117 161.3388 199.2729 14.74876311622514"}}, "geometry": {"type": "Point", "coordinates": [-165.65183596787972, -50.581538465738866]}}, {"type": "Feature", "properties": {"norad_id": 37477, "name": "FENGYUN 1C DEB", "group": "fengyun-1c-debris", "lat": -70.5004785172792, "lon": 9.10345349062465, "alt_km": 858.5442461234998, "timestamp": "2025-12-04T21:36:16.162037+00:00", "meta": {"OBJECT_NAME": "FENGYUN 1C DEB", "OBJECT_ID": "1999-025EJX", "EPOCH": "2025-12-04T06:43:27.199488", "MEAN_MOTION": 14.19685018, "ECCENTRICITY": 0.00370216, "INCLINATION": 98.6046, "RA_OF_ASC_NODE": 343.1861, "ARG_OF_PERICENTER": 130.488, "MEAN_ANOMALY": 229.9533, "EPHEMERIS_TYPE": 0, "CLASSIFICATION_TYPE": "U", "NORAD_CAT_ID": 37477, "ELEMENT_SET_NO": 999, "REV_AT_EPOCH": 81794, "BSTAR": 0.0011996531, "MEAN_MOTION_DOT": 2.512e-05, "MEAN_MOTION_DDOT": 0}, "tle": {"line1": "1 37477U 99025EJX 25338.28017592  .00002512  00000+0  11997-2 0  9996", "line2": "2 37477  98.6046 343.1861 0037021 130.4880 229.9533 14.19685018817941"}}, "geometry": {"type": "Point", "coordinates": [9.10345349062465, -70.5004785172792]}}, {"type": "Feature", "properties": {"norad_id": 37478, "name": "FENGYUN 1C DEB", "group": "fengyun-1c-debris", "lat": 75.04010485318227, "lon": -178.31450932579287, "alt_km": 1463.725214342422, "timestamp": "2025-12-04T21:36:16.162047+00:00", "meta": {"OBJECT_NAME": "FENGYUN 1C DEB", "OBJECT_ID": "1999-025EJY", "EPOCH": "2025-12-01T04:38:30.240384", "MEAN_MOTION": 13.02859978, "ECCENTRICITY": 0.0548927, "INCLINATION": 99.6439, "RA_OF_ASC_NODE": 318.8464, "ARG_OF_PERICENTER": 345.6465, "MEAN_ANOMALY": 12.9573, "EPHEMERIS_TYPE": 0, "CLASSIFICATION_TYPE": "U", "NORAD_CAT_ID": 37478, "ELEMENT_SET_NO": 999, "REV_AT_EPOCH": 56411, "BSTAR": 0.0056896, "MEAN_MOTION_DOT": 3.616e-05, "MEAN_MOTION_DDOT": 0}, "tle": {"line1": "1 37478U 99025EJY 25335.19340556  .00003616  00000+0  56896-2 0  9996", "line2": "2 37478  99.6439 318.8464 0548927 345.6465  12.9573 13.02859978564119"}}, "geometry": {"type": "Point", "coordinates": [-178.31450932579287, 75.04010485318227]}}, {"type": "Feature", "properties": {"norad_id": 37589, "name": "FENGYUN 1C DEB", "group": "fengyun-1c-debris", "lat": -57.847651552001004, "lon": -103.81649622970575, "alt_km": 788.7184769436135, "timestamp": "2025-12-04T21:36:16.162057+00:00", "meta": {"OBJECT_NAME": "FENGYUN 1C DEB", "OBJECT_ID": "1999-025EKH", "EPOCH": "2025-12-02T23:49:55.171488", "MEAN_MOTION": 14.07988933, "ECCENTRICITY": 0.01206156, "INCLINATION": 99.0733, "RA_OF_ASC_NODE": 239.5393, "ARG_OF_PERICENTER": 291.4169, "MEAN_ANOMALY": 67.4168, "EPHEMERIS_TYPE": 0, "CLASSIFICATION_TYPE": "U", "NORAD_CAT_ID": 37589, "ELEMENT_SET_NO": 999, "REV_AT_EPOCH": 82447, "BSTAR": 0.0045555953, "MEAN_MOTION_DOT": 8.24e-05, "MEAN_MOTION_DDOT": 0}, "tle": {"line1": "1 37589U 99025EKH 25336.99299967  .00008240  00000+0  45556-2 0  9996", "line2": "2 37589  99.0733 239.5393 0120615 291.4169  67.4168 14.07988933824475"}}, "geometry": {"type": "Point", "coordinates": [-103.81649622970575, -57.847651552001004]}}, {"type": "Feature", "properties": {"norad_id": 37594, "name": "FENGYUN 1C DEB", "group": "fengyun-1c-debris", "lat": 54.263480168627396, "lon": -3.889302755876142, "alt_km": 883.4563398370128, "timestamp": "2025-12-04T21:36:16.162067+00:00", "meta": {"OBJECT_NAME": "FENGYUN 1C DEB", "OBJECT_ID": "1999-025EKN", "EPOCH": "2025-12-01T20:10:06.711744", "MEAN_MOTION": 14.11100402, "ECCENTRICITY": 0.00849769, "INCLINATION": 98.7356, "RA_OF_ASC_NODE": 5.4727, "ARG_OF_PERICENTER": 301.0362, "MEAN_ANOMALY": 58.2487, "EPHEMERIS_TYPE": 0, "CLASSIFICATION_TYPE": "U", "NORAD_CAT_ID": 37594, "ELEMENT_SET_NO": 999, "REV_AT_EPOCH": 77608, "BSTAR": 0.00031068206, "MEAN_MOTION_DOT": 5.35e-06, "MEAN_MOTION_DDOT": 0}, "tle": {"line1": "1 37594U 99025EKN 25335.84035546  .00000535  00000+0  31068-3 0  9999", "line2": "2 37594  98.7356   5.4727 0084976 301.0362  58.2487 14.11100402776088"}}, "geometry": {"type": "Point", "coordinates": [-3.889302755876142, 54.263480168627396]}}, {"type": "Feature", "properties": {"norad_id": 37600, "name": "FENGYUN 1C DEB", "group": "fengyun-1c-debris", "lat": -40.92360890172863, "lon": 143.82681909444895, "alt_km": 1053.4468155074537, "timestamp": "2025-12-04T21:36:16.162077+00:00", "meta": {"OBJECT_NAME": "FENGYUN 1C DEB", "OBJECT_ID": "1999-025EKU", "EPOCH": "2025-12-02T03:47:53.898144", "MEAN_MOTION": 13.82391905, "ECCENTRICITY": 0.03579786, "INCLINATION": 98.9356, "RA_OF_ASC_NODE": 133.381, "ARG_OF_PERICENTER": 78.289, "MEAN_ANOMALY": 285.8195, "EPHEMERIS_TYPE": 0, "CLASSIFICATION_TYPE": "U", "NORAD_CAT_ID": 37600, "ELEMENT_SET_NO": 999, "REV_AT_EPOCH": 88341, "BSTAR": 0.0036460247, "MEAN_MOTION_DOT": 6.409e-05, "MEAN_MOTION_DDOT": 0}, "tle": {"line1": "1 37600U 99025EKU 25336.15826271  .00006409  00000+0  36460-2 0  9991", "line2": "2 37600  98.9356 133.3810 0357978  78.2890 285.8195 13.82391905883413"}}, "geometry": {"type": "Point", "coordinates": [143.82681909444895, -40.92360890172863]}}, {"type": "Feature", "properties": {"norad_id": 37683, "name": "FENGYUN 1C DEB", "group": "fengyun-1c-debris", "lat": -72.88674776362406, "lon": -72.42329033391084, "alt_km": 1473.2488339082565, "timestamp": "2025-12-04T21:36:16.162087+00:00", "meta": {"OBJECT_NAME": "FENGYUN 1C DEB", "OBJECT_ID": "1999-025EKY", "EPOCH": "2025-12-02T13:11:44.275200", "MEAN_MOTION": 13.31856332, "ECCENTRICITY": 0.0584424, "INCLINATION": 98.0017, "RA_OF_ASC_NODE": 258.5506, "ARG_OF_PERICENTER": 151.0621, "MEAN_ANOMALY": 26.3812, "EPHEMERIS_TYPE": 0, "CLASSIFICATION_TYPE": "U", "NORAD_CAT_ID": 37683, "ELEMENT_SET_NO": 999, "REV_AT_EPOCH": 29104, "BSTAR": 0.00139877, "MEAN_MOTION_DOT": 1.732e-05, "MEAN_MOTION_DDOT": 0}, "tle": {"line1": "1 37683U 99025EKY 25336.54981800  .00001732  00000+0  13988-2 0  9999", "line2": "2 37683  98.0017 258.5506 0584424 151.0621  26.3812 13.31856332291041"}}, "geometry": {"type": "Point", "coordinates": [-72.42329033391084, -72.88674776362406]}}]}